NORAD_CAT_ID,OBJECT_NAME,OBJECT_TYPE,EPOCH,MEAN_MOTION,ECCENTRICITY,INCLINATION,RA_OF_ASC_NODE,ARG_OF_PERICENTER,MEAN_ANOMALY,BSTAR,MEAN_MOTION_DOT,MEAN_MOTION_DDOT,TLE_LINE0,TLE_LINE1,TLE_LINE2,SEMIMAJOR_AXIS,PERIOD,APOGEE,PERIGEE,DECAYED
52361.0,STARLINK-3728,PAYLOAD,2022-08-17 06:00:02,15.08875978,0.0002066999999999,53.2166,277.0099,47.3463,337.7387,-0.0045277,-0.00071702,0.0,0 STARLINK-3728,1 52361U 22045AG  22229.25002315 -.00071702  00000-0 -45277-2 0  9991,2 52361  53.2166 277.0099 0002067  47.3463 337.7387 15.08875978 19464,6917.77,95.435,541.065,538.206,0.0
52361.0,STARLINK-3728,PAYLOAD,2022-08-17 16:00:00,15.08821751,0.0002184,53.2161,275.1403,41.5118,88.007,0.0006448,9.984e-05,0.0,0 STARLINK-3728,1 52361U 22045AG  22229.66667824  .00009984  00000-0  64480-3 0  9997,2 52361  53.2161 275.1403 0002184  41.5118  88.0070 15.08821751  1309,6917.936,95.439,541.312,538.29,0.0
52361.0,STARLINK-3728,PAYLOAD,2022-08-18 14:00:01,15.08821045,0.0002251,53.2162,271.0255,42.4584,28.9274,0.0029409,0.00046804,0.0,0 STARLINK-3728,1 52361U 22045AG  22230.58334491  .00046804  00000-0  29409-2 0  9994,2 52361  53.2162 271.0255 0002251  42.4584  28.9274 15.08821045  1307,6917.938,95.439,541.361,538.246,0.0
52361.0,STARLINK-3728,PAYLOAD,2022-08-18 22:00:00,15.08830975,0.0002091,53.2163,269.5273,46.4915,36.4941,0.002009,0.00031823,0.0,0 STARLINK-3728,1 52361U 22045AG  22230.91667824  .00031823  00000-0  20090-2 0  9992,2 52361  53.2163 269.5273 0002091  46.4915  36.4941 15.08830975 19715,6917.908,95.438,541.22,538.326,0.0
52361.0,STARLINK-3728,PAYLOAD,2022-08-19 14:00:01,15.08812869,0.0002144,53.2163,266.5361,35.59,70.6384,0.0026501999999999,0.00042111,0.0,0 STARLINK-3728,1 52361U 22045AG  22231.58334491  .00042111  00000-0  26502-2 0  9993,2 52361  53.2163 266.5361 0002144  35.5900  70.6384 15.08812869  1301,6917.9630000000025,95.439,541.312,538.345,0.0
52361.0,STARLINK-3728,PAYLOAD,2022-08-19 16:00:00,15.08838589,0.0002126999999999,53.2162,266.1616,36.2444,162.8716,-0.00034798,-5.822e-05,0.0,0 STARLINK-3728,1 52361U 22045AG  22231.66667824 -.00005822  00000-0 -34798-3 0  9998,2 52361  53.2162 266.1616 0002127  36.2444 162.8716 15.08838589 19827,6917.885,95.438,541.221,538.278,0.0
52361.0,STARLINK-3728,PAYLOAD,2022-08-19 22:00:00,15.08815895,0.0001968,53.2166,265.038,39.4356,78.3788,0.0021473,0.00034029,0.0,0 STARLINK-3728,1 52361U 22045AG  22231.91667824  .00034029  00000-0  21473-2 0  9990,2 52361  53.2166 265.0380 0001968  39.4356  78.3788 15.08815895  1305,6917.954000000002,95.439,541.181,538.4580000000002,0.0
52361.0,STARLINK-3728,PAYLOAD,2022-08-20 14:00:01,15.08814661,0.00022,53.2166,262.047,34.6644,106.3323,0.00097999,0.00015332,0.0,0 STARLINK-3728,1 52361U 22045AG  22232.58334491  .00015332  00000-0  97999-3 0  9998,2 52361  53.2166 262.0470 0002200  34.6644 106.3323 15.08814661  1306,6917.958000000001,95.439,541.345,538.3009999999998,0.0
52361.0,STARLINK-3728,PAYLOAD,2022-08-20 22:00:00,15.08800139,0.0001993,53.2169,260.54900000000004,37.9001,114.6747,0.0023399,0.00037108,0.0,0 STARLINK-3728,1 52361U 22045AG  22232.91667824  .00037108  00000-0  23399-2 0  9991,2 52361  53.2169 260.5490 0001993  37.9001 114.6747 15.08800139  1302,6918.002,95.44,541.246,538.488,0.0
52361.0,STARLINK-3728,PAYLOAD,2022-08-21 14:00:01,15.08816431,0.0002264,53.2168,257.558,35.412,140.30100000000002,0.0014289,0.00022512,0.0,0 STARLINK-3728,1 52361U 22045AG  22233.58334491  .00022512  00000-0  14289-2 0  9997,2 52361  53.2168 257.5580 0002264  35.4120 140.3010 15.08816431  1305,6917.9519999999975,95.439,541.384,538.251,0.0
52361.0,STARLINK-3728,PAYLOAD,2022-08-21 22:00:00,15.08807409,0.0002061,53.2169,256.06,39.3815,147.9163,0.0024212,0.00038422,0.0,0 STARLINK-3728,1 52361U 22045AG  22233.91667824  .00038422  00000-0  24212-2 0  9997,2 52361  53.2169 256.0600 0002061  39.3815 147.9163 15.08807409  1309,6917.98,95.44,541.271,538.419,0.0
52361.0,STARLINK-3728,PAYLOAD,2022-08-22 12:00:00,15.08804564,0.0002497,53.2168,253.4436,35.0182,82.4968,0.0028996,0.00046118,0.0,0 STARLINK-3728,1 52361U 22045AG  22234.50001157  .00046118  00000-0  28996-2 0  9998,2 52361  53.2168 253.4436 0002497  35.0182  82.4968 15.08804564 20259,6917.989000000001,95.44,541.581,538.126,0.0
52361.0,STARLINK-3728,PAYLOAD,2022-08-22 22:00:00,15.08807849,0.0002283,53.2167,251.5712,38.851,183.1389,0.0024941,0.00039595,0.0,0 STARLINK-3728,1 52361U 22045AG  22234.91667824  .00039595  00000-0  24941-2 0  9999,2 52361  53.2167 251.5712 0002283  38.8510 183.1389 15.08807849  1303,6917.979,95.44,541.423,538.264,0.0
52361.0,STARLINK-3728,PAYLOAD,2022-08-23 06:00:00,15.08843127,0.0002418,53.2166,250.0763,38.5746,194.9901,-0.0015234,-0.00024455,0.0,0 STARLINK-3728,1 52361U 22045AG  22235.25001157 -.00024455  00000-0 -15234-2 0  9994,2 52361  53.2166 250.0763 0002418  38.5746 194.9901 15.08843127 20366,6917.871,95.437,541.409,538.063,0.0
52361.0,STARLINK-3728,PAYLOAD,2022-08-23 14:00:01,15.08835161,0.0002499,53.2161,248.5803,36.6953,208.4527,-0.00017804,-3.121e-05,0.0,0 STARLINK-3728,1 52361U 22045AG  22235.58334491 -.00003121  00000-0 -17804-3 0  9993,2 52361  53.2161 248.5803 0002499  36.6953 208.4527 15.08835161  1303,6917.895,95.438,541.489,538.031,0.0
52361.0,STARLINK-3728,PAYLOAD,2022-08-23 22:00:01,15.08810921,0.0002311,53.2161,247.0823,40.9511,215.8545,0.0025538,0.00040558,0.0,0 STARLINK-3728,1 52361U 22045AG  22235.91668981  .00040558  00000-0  25538-2 0  9999,2 52361  53.2161 247.0823 0002311  40.9511 215.8545 15.08810921 20467,6917.969,95.439,541.433,538.236,0.0
52361.0,STARLINK-3728,PAYLOAD,2022-08-24 14:00:01,15.08842311,0.0002521,53.2154,244.0912,38.5006,241.4064,-0.00086532,-0.00014035,0.0,0 STARLINK-3728,1 52361U 22045AG  22236.58334491 -.00014035  00000-0 -86532-3 0  9994,2 52361  53.2154 244.0912 0002521  38.5006 241.4064 15.08842311  1301,6917.873000000001,95.437,541.482,537.994,0.0
52361.0,STARLINK-3728,PAYLOAD,2022-08-24 22:00:00,15.08974265,0.0002528,53.2172,242.5963,42.7845,248.7748,-0.013671,-0.00212316,0.0,0 STARLINK-3728,1 52361U 22045AG  22236.91667824 -.00212316  00000-0 -13671-1 0  9994,2 52361  53.2172 242.5963 0002528  42.7845 248.7748 15.08974265  1308,6917.47,95.429,541.0840000000002,537.586,0.0
52361.0,STARLINK-3728,PAYLOAD,2022-08-25 14:00:01,15.0884915,0.0002583,53.215,239.602,40.0595,274.6179,-0.0013505999999999,-0.00021726,0.0,0 STARLINK-3728,1 52361U 22045AG  22237.58334491 -.00021726  00000-0 -13506-2 0  9990,2 52361  53.2150 239.6020 0002583  40.0595 274.6179 15.08849150 20715,6917.852,95.437,541.504,537.931,0.0
52361.0,STARLINK-3728,PAYLOAD,2022-08-25 22:00:00,15.08817498,0.000246,53.215,238.104,45.0359,281.2453,0.0026805999999999,0.00042607,0.0,0 STARLINK-3728,1 52361U 22045AG  22237.91667824  .00042607  00000-0  26806-2 0  9992,2 52361  53.2150 238.1040 0002460  45.0359 281.2453 15.08817498  1301,6917.949000000001,95.439,541.516,538.112,0.0
52361.0,STARLINK-3728,PAYLOAD,2022-08-26 06:00:00,15.08847738,0.0002654,53.2151,236.6092,43.1259,294.7436,-0.0012767999999999,-0.00020557,0.0,0 STARLINK-3728,1 52361U 22045AG  22238.25001157 -.00020557  00000-0 -12768-2 0  9995,2 52361  53.2151 236.6092 0002654  43.1259 294.7436 15.08847738 20812,6917.857,95.437,541.558,537.886,0.0
52361.0,STARLINK-3728,PAYLOAD,2022-08-26 14:00:01,15.08856752,0.000268,53.2149,235.1124,41.5468,307.9768,-0.0015874,-0.00025476,0.0,0 STARLINK-3728,1 52361U 22045AG  22238.58335648 -.00025476  00000-0 -15874-2 0  9992,2 52361  53.2149 235.1124 0002680  41.5468 307.9768 15.08856752  1306,6917.829000000002,95.436,541.548,537.84,0.0
52361.0,STARLINK-3728,PAYLOAD,2022-08-26 22:00:00,15.08825427,0.0002581,53.2152,233.6146,46.5013,314.5692,0.0026996,0.00042922,0.0,0 STARLINK-3728,1 52361U 22045AG  22238.91667824  .00042922  00000-0  26996-2 0  9993,2 52361  53.2152 233.6146 0002581  46.5013 314.5692 15.08825427 20922,6917.925,95.438,541.575,538.004,0.0
52361.0,STARLINK-3728,PAYLOAD,2022-08-27 14:00:01,15.08865253,0.0002796999999999,53.2154,230.6229,43.2718,340.9937,-0.0017615999999999,-0.00028236,0.0,0 STARLINK-3728,1 52361U 22045AG  22239.58334491 -.00028236  00000-0 -17616-2 0  9991,2 52361  53.2154 230.6229 0002797  43.2718 340.9937 15.08865253  1305,6917.803000000001,95.436,541.6030000000002,537.7330000000002,0.0
52361.0,STARLINK-3728,PAYLOAD,2022-08-27 22:00:00,15.0883688,0.0002698,53.2158,229.1251,48.0149,347.8693,0.0024825,0.0003944,0.0,0 STARLINK-3728,1 52361U 22045AG  22239.91667824  .00039440  00000-0  24825-2 0  9994,2 52361  53.2158 229.1251 0002698  48.0149 347.8693 15.08836880  1307,6917.89,95.438,541.621,537.888,0.0
52361.0,STARLINK-3728,PAYLOAD,2022-08-28 06:00:00,15.08863018,0.0002898999999999,53.216,227.6303,45.7808,1.7142,-0.00093166,-0.00015096,0.0,0 STARLINK-3728,1 52361U 22045AG  22240.25001157 -.00015096  00000-0 -93166-3 0  9992,2 52361  53.2160 227.6303 0002899  45.7808   1.7142 15.08863018 21120,6917.81,95.436,541.681,537.67,0.0
52361.0,STARLINK-3728,PAYLOAD,2022-08-28 14:00:01,15.08886632,0.0002848,53.2162,226.1333,44.5104,14.5971,-0.0046126,-0.00073054,0.0,0 STARLINK-3728,1 52361U 22045AG  22240.58334491 -.00073054  00000-0 -46126-2 0  9999,2 52361  53.2162 226.1333 0002848  44.5104  14.5971 15.08886632  1306,6917.738,95.435,541.573,537.633,0.0
52361.0,STARLINK-3728,PAYLOAD,2022-08-28 22:00:00,15.08825616,0.0002706,53.2166,224.6356,48.2808,22.4478,0.0021553,0.00034168,0.0,0 STARLINK-3728,1 52361U 22045AG  22240.91667824  .00034168  00000-0  21553-2 0  9993,2 52361  53.2166 224.6356 0002706  48.2808  22.4478 15.08825616  1308,6917.924,95.438,541.661,537.9169999999998,0.0
52361.0,STARLINK-3728,PAYLOAD,2022-08-29 06:00:02,15.08844453,0.0002903,53.2167,223.1409,45.9686,36.4159,-0.00068873,-0.00011235,0.0,0 STARLINK-3728,1 52361U 22045AG  22241.25002315 -.00011235  00000-0 -68873-3 0  9998,2 52361  53.2167 223.1409 0002903  45.9686  36.4159 15.08844453 21278,6917.8669999999975,95.437,541.74,537.724,0.0
